STARLINK-31938          
1 59865U 24098H   26073.81733889  .00005148  00000+0  19640-3 0  9991
2 59865  42.9997 248.7477 0001803 259.3919 100.6730 15.27593898102630
STARLINK-31941          
1 59866U 24098J   26073.83254236 -.00000547  00000+0 -10343-4 0  9990
2 59866  43.0026 231.2044 0001576 263.9399  96.1273 15.27599614102838
STARLINK-31952          
1 59867U 24098K   26073.78409012  .00003066  00000+0  12088-3 0  9993
2 59867  43.0024 249.3650 0002012 279.6326  80.4298 15.27580642102621
STARLINK-31921          
1 59868U 24098L   26073.73898588 -.00001652  00000+0 -50548-4 0  9994
2 59868  43.0018 209.1208 0001515 275.9140  84.1539 15.27566039103071
STARLINK-31760          
1 59869U 24098M   26073.79435999  .00001501  00000+0  64044-4 0  9991
2 59869  43.0018 249.4417 0001376 283.2878  76.7821 15.27579745102625
STARLINK-31945          
1 59870U 24098N   26073.53185962 -.00003376  00000+0 -11313-3 0  9991
2 59870  42.9989 246.5869 0001859 260.5658  99.4983 15.27601909102631
STARLINK-31937          
1 59871U 24098P   26073.83630677  .00000146  00000+0  14837-4 0  9998
2 59871  43.0028 241.9764 0001891 303.0610  57.0060 15.27575006102711
STARLINK-31940          
1 59873U 24098R   26073.52464323  .00001080  00000+0  48795-4 0  9997
2 59873  43.0033 243.0771 0001843 286.1361  73.9288 15.27574962102675
STARLINK-31933          
1 59874U 24098S   26073.89944822  .00000286  00000+0  19899-4 0  9995
2 59874  43.0002 248.5118 0001256 279.8590  80.2119 15.27576053102642
STARLINK-31936          
1 59875U 24098T   26073.44203925  .00001355  00000+0  58758-4 0  9994
2 59875  43.0022 218.8227 0001171 276.8601  83.2118 15.27575196102933
STARLINK-31935          
1 59876U 24098U   26073.79050477  .00001245  00000+0  54763-4 0  9995
2 59876  43.0035 249.4136 0001418 283.9704  76.0990 15.27583751102624
STARLINK-31934          
1 59877U 24098V   26073.49218089  .00000794  00000+0  38364-4 0  9995
2 59877  42.9997 247.1477 0001395 258.9202 101.1493 15.27580651102626
STARLINK-31943          
1 59878U 24098W   26073.54897749  .00127106  00000+0  43672-2 0  9991
2 59878  43.0000 254.5013 0003250 296.0239  64.0278 15.28915736101890
STARLINK-31926          
1 59879U 24098X   26072.55230327  .00018633  00000+0  67798-3 0  9995
2 59879  42.9991 245.6644 0001846 270.4806  89.5834 15.27915277102557
STARLINK-31919          
1 59880U 24098Y   26073.51483006 -.00000408  00000+0 -53048-5 0  9996
2 59880  42.9991 250.7816 0001234 277.7328  82.3383 15.27574059102589
STARLINK-31974          
1 59885U 24100A   26073.76849579  .00001909  00000+0  78861-4 0  9997
2 59885  43.0038  96.7169 0001099 278.4705  81.6022 15.27589845101831
