[{"OBJECT_NAME":"STARLINK-31938","OBJECT_ID":"2024-098H","EPOCH":"2026-03-14T19:36:58.080096","MEAN_MOTION":15.27593898,"ECCENTRICITY":0.00018031,"INCLINATION":42.9997,"RA_OF_ASC_NODE":248.7477,"ARG_OF_PERICENTER":259.3919,"MEAN_ANOMALY":100.673,"EPHEMERIS_TYPE":0,"CLASSIFICATION_TYPE":"U","NORAD_CAT_ID":59865,"ELEMENT_SET_NO":999,"REV_AT_EPOCH":10263,"BSTAR":0.00019639938,"MEAN_MOTION_DOT":5.148e-5,"MEAN_MOTION_DDOT":0},{"OBJECT_NAME":"STARLINK-31941","OBJECT_ID":"2024-098J","EPOCH":"2026-03-14T19:58:51.659904","MEAN_MOTION":15.27599614,"ECCENTRICITY":0.00015761,"INCLINATION":43.0026,"RA_OF_ASC_NODE":231.2044,"ARG_OF_PERICENTER":263.9399,"MEAN_ANOMALY":96.1273,"EPHEMERIS_TYPE":0,"CLASSIFICATION_TYPE":"U","NORAD_CAT_ID":59866,"ELEMENT_SET_NO":999,"REV_AT_EPOCH":10283,"BSTAR":-1.0342554e-5,"MEAN_MOTION_DOT":-5.47e-6,"MEAN_MOTION_DDOT":0},{"OBJECT_NAME":"STARLINK-31952","OBJECT_ID":"2024-098K","EPOCH":"2026-03-14T18:49:05.386368","MEAN_MOTION":15.27580642,"ECCENTRICITY":0.00020129,"INCLINATION":43.0024,"RA_OF_ASC_NODE":249.365,"ARG_OF_PERICENTER":279.6326,"MEAN_ANOMALY":80.4298,"EPHEMERIS_TYPE":0,"CLASSIFICATION_TYPE":"U","NORAD_CAT_ID":59867,"ELEMENT_SET_NO":999,"REV_AT_EPOCH":10262,"BSTAR":0.00012088341,"MEAN_MOTION_DOT":3.066e-5,"MEAN_MOTION_DDOT":0},{"OBJECT_NAME":"STARLINK-31921","OBJECT_ID":"2024-098L","EPOCH":"2026-03-14T17:44:08.380032","MEAN_MOTION":15.27566039,"ECCENTRICITY":0.00015157,"INCLINATION":43.0018,"RA_OF_ASC_NODE":209.1208,"ARG_OF_PERICENTER":275.914,"MEAN_ANOMALY":84.1539,"EPHEMERIS_TYPE":0,"CLASSIFICATION_TYPE":"U","NORAD_CAT_ID":59868,"ELEMENT_SET_NO":999,"REV_AT_EPOCH":10307,"BSTAR":-5.0548003e-5,"MEAN_MOTION_DOT":-1.652e-5,"MEAN_MOTION_DDOT":0},{"OBJECT_NAME":"STARLINK-31760","OBJECT_ID":"2024-098M","EPOCH":"2026-03-14T19:03:52.703136","MEAN_MOTION":15.27579745,"ECCENTRICITY":0.00013769,"INCLINATION":43.0018,"RA_OF_ASC_NODE":249.4417,"ARG_OF_PERICENTER":283.2878,"MEAN_ANOMALY":76.7821,"EPHEMERIS_TYPE":0,"CLASSIFICATION_TYPE":"U","NORAD_CAT_ID":59869,"ELEMENT_SET_NO":999,"REV_AT_EPOCH":10262,"BSTAR":6.4044075e-5,"MEAN_MOTION_DOT":1.501e-5,"MEAN_MOTION_DDOT":0},{"OBJECT_NAME":"STARLINK-31945","OBJECT_ID":"2024-098N","EPOCH":"2026-03-14T12:45:52.671168","MEAN_MOTION":15.27601909,"ECCENTRICITY":0.00018593,"INCLINATION":42.9989,"RA_OF_ASC_NODE":246.5869,"ARG_OF_PERICENTER":260.5658,"MEAN_ANOMALY":99.4983,"EPHEMERIS_TYPE":0,"CLASSIFICATION_TYPE":"U","NORAD_CAT_ID":59870,"ELEMENT_SET_NO":999,"REV_AT_EPOCH":10263,"BSTAR":-0.00011312886,"MEAN_MOTION_DOT":-3.376e-5,"MEAN_MOTION_DDOT":0},{"OBJECT_NAME":"STARLINK-31937","OBJECT_ID":"2024-098P","EPOCH":"2026-03-14T20:04:16.904928","MEAN_MOTION":15.27575006,"ECCENTRICITY":0.00018913,"INCLINATION":43.0028,"RA_OF_ASC_NODE":241.9764,"ARG_OF_PERICENTER":303.061,"MEAN_ANOMALY":57.006,"EPHEMERIS_TYPE":0,"CLASSIFICATION_TYPE":"U","NORAD_CAT_ID":59871,"ELEMENT_SET_NO":999,"REV_AT_EPOCH":10271,"BSTAR":1.4836738e-5,"MEAN_MOTION_DOT":1.46e-6,"MEAN_MOTION_DDOT":0},{"OBJECT_NAME":"STARLINK-31940","OBJECT_ID":"2024-098R","EPOCH":"2026-03-14T12:35:29.175072","MEAN_MOTION":15.27574962,"ECCENTRICITY":0.00018434,"INCLINATION":43.0033,"RA_OF_ASC_NODE":243.0771,"ARG_OF_PERICENTER":286.1361,"MEAN_ANOMALY":73.9288,"EPHEMERIS_TYPE":0,"CLASSIFICATION_TYPE":"U","NORAD_CAT_ID":59873,"ELEMENT_SET_NO":999,"REV_AT_EPOCH":10267,"BSTAR":4.8795097e-5,"MEAN_MOTION_DOT":1.08e-5,"MEAN_MOTION_DDOT":0},{"OBJECT_NAME":"STARLINK-31933","OBJECT_ID":"2024-098S","EPOCH":"2026-03-14T21:35:12.326208","MEAN_MOTION":15.27576053,"ECCENTRICITY":0.00012566,"INCLINATION":43.0002,"RA_OF_ASC_NODE":248.5118,"ARG_OF_PERICENTER":279.859,"MEAN_ANOMALY":80.2119,"EPHEMERIS_TYPE":0,"CLASSIFICATION_TYPE":"U","NORAD_CAT_ID":59874,"ELEMENT_SET_NO":999,"REV_AT_EPOCH":10264,"BSTAR":1.989931e-5,"MEAN_MOTION_DOT":2.86e-6,"MEAN_MOTION_DDOT":0},{"OBJECT_NAME":"STARLINK-31936","OBJECT_ID":"2024-098T","EPOCH":"2026-03-14T10:36:32.191200","MEAN_MOTION":15.27575196,"ECCENTRICITY":0.00011715,"INCLINATION":43.0022,"RA_OF_ASC_NODE":218.8227,"ARG_OF_PERICENTER":276.8601,"MEAN_ANOMALY":83.2118,"EPHEMERIS_TYPE":0,"CLASSIFICATION_TYPE":"U","NORAD_CAT_ID":59875,"ELEMENT_SET_NO":999,"REV_AT_EPOCH":10293,"BSTAR":5.8757927e-5,"MEAN_MOTION_DOT":1.355e-5,"MEAN_MOTION_DDOT":0},{"OBJECT_NAME":"STARLINK-31935","OBJECT_ID":"2024-098U","EPOCH":"2026-03-14T18:58:19.612128","MEAN_MOTION":15.27583751,"ECCENTRICITY":0.00014183,"INCLINATION":43.0035,"RA_OF_ASC_NODE":249.4136,"ARG_OF_PERICENTER":283.9704,"MEAN_ANOMALY":76.099,"EPHEMERIS_TYPE":0,"CLASSIFICATION_TYPE":"U","NORAD_CAT_ID":59876,"ELEMENT_SET_NO":999,"REV_AT_EPOCH":10262,"BSTAR":5.4762678e-5,"MEAN_MOTION_DOT":1.245e-5,"MEAN_MOTION_DDOT":0},{"OBJECT_NAME":"STARLINK-31934","OBJECT_ID":"2024-098V","EPOCH":"2026-03-14T11:48:44.428896","MEAN_MOTION":15.27580651,"ECCENTRICITY":0.00013954,"INCLINATION":42.9997,"RA_OF_ASC_NODE":247.1477,"ARG_OF_PERICENTER":258.9202,"MEAN_ANOMALY":101.1493,"EPHEMERIS_TYPE":0,"CLASSIFICATION_TYPE":"U","NORAD_CAT_ID":59877,"ELEMENT_SET_NO":999,"REV_AT_EPOCH":10262,"BSTAR":3.8363532e-5,"MEAN_MOTION_DOT":7.94e-6,"MEAN_MOTION_DDOT":0},{"OBJECT_NAME":"STARLINK-31943","OBJECT_ID":"2024-098W","EPOCH":"2026-03-14T13:10:31.655136","MEAN_MOTION":15.28915736,"ECCENTRICITY":0.00032507,"INCLINATION":43,"RA_OF_ASC_NODE":254.5013,"ARG_OF_PERICENTER":296.0239,"MEAN_ANOMALY":64.0278,"EPHEMERIS_TYPE":0,"CLASSIFICATION_TYPE":"U","NORAD_CAT_ID":59878,"ELEMENT_SET_NO":999,"REV_AT_EPOCH":10189,"BSTAR":0.0043671515,"MEAN_MOTION_DOT":0.00127106,"MEAN_MOTION_DDOT":0},{"OBJECT_NAME":"STARLINK-31926","OBJECT_ID":"2024-098X","EPOCH":"2026-03-13T13:15:19.002528","MEAN_MOTION":15.27915277,"ECCENTRICITY":0.00018468,"INCLINATION":42.9991,"RA_OF_ASC_NODE":245.6644,"ARG_OF_PERICENTER":270.4806,"MEAN_ANOMALY":89.5834,"EPHEMERIS_TYPE":0,"CLASSIFICATION_TYPE":"U","NORAD_CAT_ID":59879,"ELEMENT_SET_NO":999,"REV_AT_EPOCH":10255,"BSTAR":0.00067798258,"MEAN_MOTION_DOT":0.00018633,"MEAN_MOTION_DDOT":0},{"OBJECT_NAME":"STARLINK-31919","OBJECT_ID":"2024-098Y","EPOCH":"2026-03-14T12:21:21.317184","MEAN_MOTION":15.27574059,"ECCENTRICITY":0.00012344,"INCLINATION":42.9991,"RA_OF_ASC_NODE":250.7816,"ARG_OF_PERICENTER":277.7328,"MEAN_ANOMALY":82.3383,"EPHEMERIS_TYPE":0,"CLASSIFICATION_TYPE":"U","NORAD_CAT_ID":59880,"ELEMENT_SET_NO":999,"REV_AT_EPOCH":10258,"BSTAR":-5.304806e-6,"MEAN_MOTION_DOT":-4.08e-6,"MEAN_MOTION_DDOT":0},{"OBJECT_NAME":"STARLINK-31974","OBJECT_ID":"2024-100A","EPOCH":"2026-03-14T18:26:38.036256","MEAN_MOTION":15.27589845,"ECCENTRICITY":0.00010993,"INCLINATION":43.0038,"RA_OF_ASC_NODE":96.7169,"ARG_OF_PERICENTER":278.4705,"MEAN_ANOMALY":81.6022,"EPHEMERIS_TYPE":0,"CLASSIFICATION_TYPE":"U","NORAD_CAT_ID":59885,"ELEMENT_SET_NO":999,"REV_AT_EPOCH":10183,"BSTAR":7.8860796e-5,"MEAN_MOTION_DOT":1.909e-5,"MEAN_MOTION_DDOT":0}]
